#cP2007  7 29  0  0  0.00000000      96 ORBIT IGS05 HLM  IGS
## 1438      0.00000000   900.00000000 54310 0.0000000000000
+   31   G01G02G03G04G05G06G07G08G09G10G11G12G13G14G16G17G18
+        G19G20G21G22G23G24G25G26G27G28G29G30G31G32  0  0  0
+          0  0  0  0  0  0  0  0  0  0  0  0  0  0  0  0  0
+          0  0  0  0  0  0  0  0  0  0  0  0  0  0  0  0  0
+          0  0  0  0  0  0  0  0  0  0  0  0  0  0  0  0  0
++         3  3  3  3  3  2  2  3  3  3  3  3  3  3  3  3  3
++         3  3  3  3  3  2  3  3  3  3  5  3  3  4  0  0  0
++         0  0  0  0  0  0  0  0  0  0  0  0  0  0  0  0  0
++         0  0  0  0  0  0  0  0  0  0  0  0  0  0  0  0  0
++         0  0  0  0  0  0  0  0  0  0  0  0  0  0  0  0  0
%c G  cc GPS ccc cccc cccc cccc cccc ccccc ccccc ccccc ccccc
%c cc cc ccc ccc cccc cccc cccc cccc ccccc ccccc ccccc ccccc
%f  1.2500000  1.025000000  0.00000000000  0.000000000000000
%f  0.0000000  0.000000000  0.00000000000  0.000000000000000
%i    0    0    0    0      0      0      0      0         0
%i    0    0    0    0      0      0      0      0         0
/* FINAL ORBIT COMBINATION FROM WEIGHTED AVERAGE OF:        
/* cod emr esa gfz jpl mit ngs sio                          
/* REFERENCED TO IGS TIME (IGST) AND TO WEIGHTED MEAN POLE: 
/* PCV:IGS05_1421 OL/AL:FES2004  NONE     Y  ORB:CMB CLK:CMB
*  2007  7 29  4 30  0.00000000
PG01   3800.734054  14309.097414  22259.100269    142.745355  6  7  6 165       
PG02 -12120.117429 -22842.512259   6513.811026    125.045261 11 11  8 187       
PG03  12102.271758  12703.723858 -20234.209766     93.444296  9  7  8 127       
PG04  -1312.634383 -20884.913131  16076.473349      4.536710  9  8  5 170       
PG05 -16469.229261   3287.279993  20299.234887    232.552822  8 10  8 170       
PG06 -25375.383404   7093.207703  -3316.200554    241.009368  7  7  6 137       
PG07 -24242.042759   9201.280171  -5525.863640    179.212682  8  8  5 151       
PG08   7182.939867 -14423.844195 -21134.719995   -116.751351 11  9  7 174       
PG09 -20456.902888 -13141.296644  10320.558947     80.779736  8 11 10 141       
PG10  -4009.825850 -20044.316919 -16897.963541    105.428846  7 10 10 174       
PG11  22727.703558   8775.116497  10807.968145     21.319585  7  8  9 161       
PG12 -14859.646326  -3724.679813  21794.216504    -50.895017  8  9  7 148       
PG13  25432.925359  -5874.480773  -4928.023797    193.836705  6  9 10 168       
PG14 -11531.204389  14191.491199  19310.742624     32.494064 10 12  6 187       
PG16   -494.324488  23372.209688 -12376.618918    165.820042  6 10  6 164       
PG17  13511.822734 -14371.288129  17740.497082     59.638189 12 10  7 171       
PG18 -16773.566520  16272.410872 -12133.049405   -242.666577  6  8  5 161       
PG19  21115.352327   8193.544609 -13878.267453     54.284808  7  8 10 151       
PG20  16002.666626    246.120209  21089.142641    -27.372968  8 10  7 155       
PG21 -14684.293402   6198.207142 -21159.826207     78.697899  9  8  7 147       
PG22 -11408.133648  23949.472814   -555.685292    192.443923  8  9  8 172       
PG23  26127.913725    -28.085020   5305.518228    186.050918  7  8  8 160       
PG24 -19017.656804  -5813.781042 -17260.631406     18.721921  8  8  3 137       
PG25  18082.529339   -303.688299 -19036.608374    386.393237  9  8  5 159       
PG26 -18323.348850  -9536.045517 -17459.633833   -334.441093  8  8  8 134       
PG27  13573.475235  -6807.892500 -21168.215392    125.512249  9  9  6 150       
PG28  12797.544371 -22641.471839  -4034.391384     -3.865382  9  8  8 184       
PG29 -14406.729843 -10866.742773 -19423.773713      4.778597 14 14 14 182       
PG30 -16953.120210   9820.392737  17566.247747     40.863731  7  7  9 182       
PG31   4343.750228  21854.926990  14595.402198     14.430677  9 10  9 189       
PG32  -3143.891872  23953.939846  11647.122714    534.676387  9  9 14 160       
*  2007  7 29  4 45  0.00000000
PG01   1321.223576  14619.858420  22336.786435    142.747575  6  7  6 162       
PG02 -11330.371294 -22314.071158   9129.089965    125.047735 11 12  8 187       
PG03   9889.364197  13403.676686 -20949.098657     93.449614  9  7  8 117       
PG04     89.715538 -19489.423219  17814.656147      4.535431  9  8  5 167       
PG05 -15922.171413    926.752619  20975.265098    232.590662  8 10  8 165       
PG06 -25680.550245   6820.926883   -530.021221    241.012919  7  7  7 127       
PG07 -24818.117120   9008.711331  -2779.448050    179.193542  8  8  5 137       
PG08   8706.946182 -12523.144836 -21806.296342   -116.751522 11  9  7 174       
PG09 -21037.676422 -14104.694184   7723.884855     80.781669  8 11 10 138       
PG10  -3185.056754 -21666.231248 -14915.941641    105.429552  7 11 10 176       
PG11  23341.218666   9783.218164   8420.364622     21.320172  7  8  9 162       
PG12 -14020.110311  -6051.942143  21834.423694    -50.895856  8  9  7 153       
PG13  25836.481183  -5771.018962  -2040.762068    193.839636  5  9 10 172       
PG14 -13621.572336  14412.121529  17704.906011     32.495708 10 12  6 187       
PG16  -1162.819961  24498.545690  -9911.157596    165.822368  6 10  6 171       
PG17  15442.167138 -14523.700463  15936.290885     59.636996 12 10  8 175       
PG18 -16410.594717  14742.146177 -14383.432837   -242.665598  7  8  5 162       
PG19  19427.932068   8566.725768 -15937.594485     54.287321  7  9  9 156       
PG20  15230.423437   2584.126078  21500.826385    -27.373836  8 10  7 153       
PG21 -16148.275170   4272.170988 -20618.706057     78.697993  9  8  8 156       
PG22 -11580.495851  23614.161277  -3380.941518    192.445575  7  9  7 163       
PG23  25406.636212    302.777842   8032.057792    186.054170  6  8  8 161       
PG24 -20012.240347  -7462.098916 -15399.334982     18.724148  9  8  3 136       
PG25  19517.680808   1324.663422 -17531.755368    386.407085  8  8  5 156       
PG26 -16362.822900  -9862.815546 -19138.765075   -334.461067  8  7  8 140       
PG27  15270.467698  -4943.796886 -20558.936356    125.515831  8  9  6 146       
PG28  12809.152479 -21921.186112  -6821.931718     -3.866037  8  9  8 184       
PG29 -12136.809008 -11324.728270 -20628.581662      4.779166 14 14 14 170       
PG30 -16446.796950   7714.292430  19022.625069     40.863323  7  6  8 183       
PG31   3078.447617  20625.849860  16601.360217     14.429482  9 10  8 192       
PG32  -3770.341178  24899.002204   9109.774139    534.694060  9  8 14 168       
*  2007  7 29  5  0  0.00000000
PG01  -1124.916140  15070.108487  22037.340165    142.746416  7  7  6 166       
PG02 -10315.461254 -21619.114372  11588.609402    125.050308 11 12  9 184       
PG03   7652.686579  14228.036055 -21311.669536     93.454754  9  7  8 110       
PG04   1678.359188 -18032.606304  19240.854395      4.533606  9  8  5 167       
PG05 -15478.091055  -1511.282404  21281.710348    232.628668  8 10  7 163       
PG06 -25694.642051   6481.630790   2265.284085    241.016460  7  7  7 120       
PG07 -25101.986713   8755.946589     14.905197    179.174648  7  8  5 139       
PG08  10365.947481 -10670.988964 -22104.815536   -116.753113 10 10  7 173       
PG09 -21453.317798 -14818.061597   4993.003637     80.782716  8 10 10 135       
PG10  -2519.772788 -23103.259996 -12675.390503    105.430696  7 11 10 178       
PG11  23777.781942  10597.940453   5889.642218     21.320578  7  7  9 161       
PG12 -13309.169817  -8403.869723  21502.483134    -50.896923  8  9  6 151       
PG13  25921.918641  -5624.985590    881.645798    193.842619  5  9  9 170       
PG14 -15502.519889  14708.128248  15795.228605     32.497623  9 12  6 187       
PG16  -1684.002552  25381.175353  -7273.037693    165.824840  6 10  6 177       
PG17  17148.359053 -14726.252137  13856.626200     59.635841 12 11  8 179       
PG18 -16045.406095  12966.864041 -16379.894251   -242.664271  7  8  5 168       
PG19  17546.107266   9063.540885 -17722.290587     54.289820  8  9  9 158       
PG20  14570.071717   4982.459317  21538.983992    -27.374005  8 10  7 161       
PG21 -17646.802007   2485.373199 -19721.809370     78.697796  9  9  8 166       
PG22 -11665.301202  22988.439717  -6147.706417    192.447020  7  9  7 163       
PG23  24411.792153    742.557013  10621.698439    186.057118  6  9  9 155       
PG24 -20940.828165  -8884.168162 -13266.062935     18.727105  9  8  3 145       
PG25  20889.983239   2750.619744 -15715.086396    386.421015  8  7  6 152       
PG26 -14258.293870 -10338.176363 -20505.827205   -334.481214  8  7  8 146       
PG27  16990.201661  -3235.573014 -19576.159183    125.519038  8 10  6 137       
PG28  12762.485457 -20903.417434  -9488.385350     -3.866732  8  9  9 188       
PG29  -9778.545090 -11938.683341 -21475.120477      4.779706 14 15 14 156       
PG30 -16007.246850   5442.397367  20142.011542     40.864187  7  6  8 182       
PG31   1606.883101  19313.786808  18324.683065     14.428624  9 10  8 191       
PG32  -4241.103461  25604.684121   6419.492572    534.711606  8  7 14 169       
EOF
